{"type": "FeatureCollection", "features": [{"type": "Feature", "geometry": {"type": "MultiPolygon", "coordinates": [[[[-122.61228500000237, 37.815224000352075], [-122.60023600040276, 37.80248299986578], [-122.58817400038433, 37.78936199975792], [-122.58472800007236, 37.77915600026019], [-122.58329299979647, 37.77126600013509], [-122.58198100044255, 37.76405000021796], [-122.5812809999355, 37.76020300000462], [-122.57990000008627, 37.74807900012685], [-122.57829400010615, 37.73398799995195], [-122.57518900027607, 37.70672099977438], [-122.55068600012251, 37.70733199992839], [-122.50710299982828, 37.70808499970506], [-122.50693100029913, 37.708088000241005], [-122.50438499961245, 37.708131999796066], [-122.50283200023412, 37.708132999737224], [-122.50277799980744, 37.708132999737224], [-122.50248499990447, 37.708132999737224], [-122.49830200017388, 37.708131999796066], [-122.49823299967858, 37.708131999796066], [-122.49816900010447, 37.708131999796066], [-122.49810999965491, 37.708131999796066], [-122.49809299993649, 37.708131999796066], [-122.49785699993495, 37.708131999796066], [-122.49013900020391, 37.708140999976436], [-122.48988200028597, 37.708143999799425], [-122.48877800044619, 37.708155999800844], [-122.48637599969956, 37.708155999800844], [-122.48613499967514, 37.708155999800844], [-122.48603799959075, 37.708154999860035], [-122.48587500028245, 37.708155999800844], [-122.48577400000012, 37.708133999678324], [-122.48566400039525, 37.708108999725], [-122.48564000010582, 37.708149000214846], [-122.48558999987708, 37.70823100029859], [-122.4853859996626, 37.70817300021407], [-122.48471700001602, 37.70817300021407], [-122.48425599988354, 37.70816899974094], [-122.48348099993174, 37.708171000332854], [-122.48231699981753, 37.70817300021407], [-122.48101999963389, 37.70817899985732], [-122.47956500016483, 37.70818099973831], [-122.47789999973517, 37.708190999853066], [-122.47645100011388, 37.70818899997234], [-122.4751139997473, 37.708190999853066], [-122.47284499996836, 37.708204999727165], [-122.47172799970981, 37.708209000198345], [-122.4714239999362, 37.708204999727165], [-122.4713329996996, 37.70820700031816], [-122.47107999997961, 37.70820299984687], [-122.47097799987236, 37.70820199990665], [-122.46927200033313, 37.70819900008601], [-122.46901299986706, 37.7081980001458], [-122.46905700024799, 37.70823200023836], [-122.46913000004291, 37.70831400023033], [-122.469241000371, 37.70843800034046], [-122.46927099960989, 37.70866200010523], [-122.46927900000581, 37.70957899998924], [-122.46928800022665, 37.71054800013385], [-122.46696500002103, 37.711470000323395], [-122.46701600007468, 37.711561000050764], [-122.46703399961802, 37.71159400012729], [-122.46706399975525, 37.711648000091685], [-122.46707200015118, 37.712344000295396], [-122.46707200015118, 37.71237199989315], [-122.46707299997607, 37.712421999757694], [-122.46707399980099, 37.71247900018751], [-122.46709399989247, 37.71427300002143], [-122.46799600006591, 37.71426600030257], [-122.4680169999823, 37.71610300017964], [-122.46803600024886, 37.71789999980971], [-122.46894099989703, 37.71789400024296], [-122.46895099994276, 37.71965900024957], [-122.46805200014241, 37.71966499967344], [-122.46807600043184, 37.72165599991805], [-122.46761500029938, 37.72165899990446], [-122.46718500012908, 37.7216619998907], [-122.46715300034202, 37.71967200030335], [-122.46625399964336, 37.719679000222065], [-122.46627799993279, 37.72166799986292], [-122.46556400008033, 37.721673000076215], [-122.465390999828, 37.7216739998346], [-122.46498400012221, 37.72167600006195], [-122.4644839996317, 37.72167999980585], [-122.46358200035661, 37.72168599977661], [-122.46268299965791, 37.72169199974684], [-122.46239399995294, 37.72169399997364], [-122.4623649996406, 37.72169499973179], [-122.46233500040171, 37.72170599991241], [-122.46226500008149, 37.721747999682584], [-122.46217399984491, 37.72180100030603], [-122.46211100009572, 37.721822000167215], [-122.4620559998441, 37.72182899988277], [-122.46124200043256, 37.72183100010587], [-122.46022399990818, 37.721834999841406], [-122.459203999734, 37.72183700006434], [-122.4581829997349, 37.72184000004343], [-122.45716299956072, 37.72184300002239], [-122.4561409997367, 37.72184600000123], [-122.4551270003086, 37.721848999979954], [-122.45410700013441, 37.72185100020251], [-122.45310100020393, 37.721854000181025], [-122.45310200002885, 37.7221209999129], [-122.45310500040189, 37.72313499979498], [-122.45310500040189, 37.72320599968083], [-122.45310500040189, 37.723269999919964], [-122.45233499957466, 37.72318000010083], [-122.45233399974974, 37.723044999811776], [-122.45188600003607, 37.72274699998708], [-122.45024400007095, 37.72208000010707], [-122.45014100013879, 37.722046999726984], [-122.45011799967426, 37.72208300007632], [-122.45009599993294, 37.722117999945205], [-122.45006400014589, 37.72216800033823], [-122.44962099955677, 37.72289000017656], [-122.44960399983836, 37.72291700031057], [-122.44954600011204, 37.72301100012129], [-122.44948400018774, 37.723003000066456], [-122.44917799986601, 37.723003000066456], [-122.44809800031567, 37.72300500025786], [-122.44787800020765, 37.72300500025786], [-122.4476010001982, 37.72383499972065], [-122.4475860001296, 37.723880000311716], [-122.44753400025104, 37.72400499967865], [-122.44723700015012, 37.72456899983769], [-122.44720100016512, 37.724638000333286], [-122.44686399988123, 37.72521300030565], [-122.44639100005323, 37.72586299978009], [-122.44630800021255, 37.72597800021905], [-122.4459530003853, 37.72636499974847], [-122.44572400005644, 37.7266129997368], [-122.44560299968262, 37.72673399999409], [-122.44504100016616, 37.72729500021872], [-122.44468799998873, 37.72758299988005], [-122.44442299967484, 37.72779899977922], [-122.44379099983819, 37.72823299986933], [-122.44366399961658, 37.72830399984173], [-122.44307500033592, 37.728633999970704], [-122.44272200015851, 37.7287940001068], [-122.44196999977292, 37.729136000339714], [-122.44180099971852, 37.729201999741676], [-122.44122999998122, 37.72942300029273], [-122.44113500044497, 37.72946000026266], [-122.44078100044266, 37.729605000293134], [-122.44025599983777, 37.72982000033019], [-122.440101999852, 37.72987799981025], [-122.43980099955309, 37.7301009997647], [-122.43959700023692, 37.73017699971677], [-122.43955799987886, 37.73019099969944], [-122.4385410000777, 37.73056800001361], [-122.43819100027333, 37.73069799977492], [-122.43701200009049, 37.73111800012189], [-122.43644999967572, 37.7313330000289], [-122.4361330003816, 37.73147000009346], [-122.4358920003572, 37.73157699980165], [-122.43560100010404, 37.73159599977351], [-122.43540399956224, 37.73162199995143], [-122.43516699973577, 37.73165299965982], [-122.43525899979728, 37.73150699975109], [-122.43524700010173, 37.731504999789294], [-122.4351459998194, 37.73149499997939], [-122.43502500034387, 37.73154200013986], [-122.43450499976188, 37.73174200021719], [-122.43443799981475, 37.73164200024605], [-122.43368499960424, 37.73185300014777], [-122.43344699995286, 37.73192000030057], [-122.43286500034489, 37.7320600002651], [-122.43264299968875, 37.73211299990349], [-122.43184000014784, 37.73225399982922], [-122.43178900009421, 37.732257999712346], [-122.43171600029929, 37.732283000042656], [-122.43130500039554, 37.73232799976338], [-122.43094800002015, 37.73233800017125], [-122.43034499959748, 37.73235500000895], [-122.43014899977891, 37.732338999785675], [-122.42956999964568, 37.73229299974613], [-122.42917200016076, 37.73222700025723], [-122.42853000027831, 37.732120999684774], [-122.42820600041321, 37.73205199976682], [-122.42803800018373, 37.73201600000029], [-122.42734299969955, 37.73186800014482], [-122.42711900029187, 37.731825999719156], [-122.42639100019576, 37.73168999993643], [-122.42610400014055, 37.73165099970191], [-122.42556299964218, 37.7315789997615], [-122.42498600005709, 37.73155999978528], [-122.42464499957522, 37.73154899964727], [-122.42455400023695, 37.73154899964727], [-122.4239819997764, 37.7315519999434], [-122.42391999985213, 37.731553000278964], [-122.42282000021032, 37.73164099991174], [-122.42170299995176, 37.73180699980631], [-122.42127899962921, 37.731868999765645], [-122.42113399986428, 37.731890999944966], [-122.42071299991477, 37.73195299983396], [-122.42070000039432, 37.73195499978371], [-122.42035800008756, 37.7320060002594], [-122.42026100000317, 37.7320120001041], [-122.41946400031004, 37.7320600002651], [-122.41924400020203, 37.7320600002651], [-122.41846099985429, 37.7320600002651], [-122.41739200017463, 37.73204999981969], [-122.41665700040579, 37.73201299972297], [-122.41593900035537, 37.73207199994529], [-122.41545899995634, 37.73216400027042], [-122.41520899971111, 37.73221200033291], [-122.41511499999979, 37.73222999981548], [-122.41438799972855, 37.7324170002199], [-122.41349300012614, 37.73286400011264], [-122.41345799996603, 37.732584000117335], [-122.41338400034618, 37.73249299992638], [-122.41281799973346, 37.73270800010377], [-122.41052499966506, 37.73363900008447], [-122.40922900020468, 37.73414700029681], [-122.40920599974014, 37.73415100007768], [-122.40913700014316, 37.73416600031966], [-122.40874399978277, 37.73424699972664], [-122.40810600009833, 37.73431300025676], [-122.40800399999105, 37.734323999984156], [-122.40746000001793, 37.73426599972384], [-122.40686900018916, 37.73449999966316], [-122.40683999987684, 37.73451100007322], [-122.4068159995874, 37.73452100018625], [-122.40713000030505, 37.73504700024924], [-122.40684800027276, 37.73513499999213], [-122.40681499976247, 37.73514600030785], [-122.40664599970806, 37.73519899986864], [-122.40654799979879, 37.7352300002107], [-122.40629500007877, 37.735307000156354], [-122.40617799990292, 37.7351580001983], [-122.40549500001264, 37.7342870003133], [-122.40509599980444, 37.73371600026383], [-122.40505999981944, 37.73365199981586], [-122.40465700031163, 37.73294900007931], [-122.40396199982744, 37.73161000019837], [-122.40340000031098, 37.73065800009126], [-122.40302200001922, 37.729901999875864], [-122.40275199968247, 37.72935699966679], [-122.40220900043255, 37.728101999661526], [-122.40210499977715, 37.727789999855204], [-122.4018749996234, 37.72696499980712], [-122.40182199991997, 37.726775000065764], [-122.40147100029068, 37.725516000110225], [-122.40118300041058, 37.7245880001865], [-122.40078500002731, 37.72361599972208], [-122.4003819996212, 37.72263299996117], [-122.3999249996867, 37.7215169999412], [-122.39983099997538, 37.72142700012378], [-122.39959999999671, 37.72091999981987], [-122.39941900024675, 37.720531999778665], [-122.39930899974355, 37.72027799995134], [-122.39920800035952, 37.719991999869855], [-122.39912499962054, 37.71972999991435], [-122.39908899963554, 37.719571999666876], [-122.39896700033513, 37.719030000277755], [-122.39891399973334, 37.71879199987514], [-122.39888199994631, 37.71864799979175], [-122.39878800023496, 37.71822399985511], [-122.39871299989188, 37.71776599965745], [-122.3986929998004, 37.717642000234], [-122.3985370001648, 37.71779099990578], [-122.39851500042347, 37.71766399966549], [-122.39840699957014, 37.71704900014445], [-122.39836700028549, 37.71641299981454], [-122.39832799992743, 37.71625900034603], [-122.39845799962379, 37.71593699990606], [-122.39840599974525, 37.715830000341654], [-122.39820200042905, 37.71549199985917], [-122.39822499999526, 37.71549199985917], [-122.39842300036196, 37.71546200033469], [-122.39846900039275, 37.715455000017585], [-122.39826600000316, 37.715148000177436], [-122.39775499964199, 37.714548000331185], [-122.3968750001082, 37.71345599974], [-122.39679899994022, 37.71334800027512], [-122.39663300025886, 37.71311099996984], [-122.39651000023522, 37.712934000039006], [-122.39638800003647, 37.71272400012672], [-122.39619800006567, 37.71239500006245], [-122.39606900019426, 37.71208800033522], [-122.39596299988905, 37.711835999766016], [-122.39580800007835, 37.71138300007344], [-122.39570099994822, 37.7109110001555], [-122.39563200035123, 37.710611999937875], [-122.39551799965012, 37.7101169999252], [-122.39541100041829, 37.70965499967813], [-122.39520999967854, 37.70878600034377], [-122.39514100008157, 37.708486000143985], [-122.39512000016516, 37.70839400025637], [-122.39485200037657, 37.70839300031873], [-122.39468300032216, 37.708390999732806], [-122.39347099962902, 37.708368999680054], [-122.39340000038223, 37.70836799974213], [-122.39318600012197, 37.70836300005219], [-122.39294500009758, 37.70835900030002], [-122.39268200033183, 37.7083309998966], [-122.38897599972888, 37.7083309998966], [-122.38748199990177, 37.7083309998966], [-122.38108100044586, 37.70843100007039], [-122.37948899981113, 37.708413999716356], [-122.3794009999476, 37.70840600021726], [-122.37606299959067, 37.70836399999018], [-122.37562400009786, 37.70837300014239], [-122.37168099966843, 37.7083309998966], [-122.36038100008135, 37.7083309998966], [-122.2945800002043, 37.708229999648104], [-122.28178000004398, 37.708229999648104], [-122.28245999956124, 37.70930900005265], [-122.2844999999096, 37.71255000033735], [-122.28518000032518, 37.71363000024441], [-122.28609900021704, 37.7150700000316], [-122.28886000009055, 37.71938999988157], [-122.28977999980732, 37.72082999998769], [-122.29019999993186, 37.721490000007456], [-122.29146000030556, 37.72347000031076], [-122.29188000043014, 37.72413000025567], [-122.29222000018878, 37.72462999974368], [-122.29324000036297, 37.72612999998162], [-122.29358000012158, 37.726630000178325], [-122.29376000004665, 37.726909999950855], [-122.29429999982182, 37.727750000021814], [-122.29447999974686, 37.728029999822894], [-122.29766800031595, 37.73319599972965], [-122.30028000022656, 37.73742900004578], [-122.30117999985184, 37.73882900011893], [-122.30727999990718, 37.74866799994732], [-122.31048000017184, 37.753829000010064], [-122.31313599956506, 37.75799900006808], [-122.31609200033057, 37.76263800031781], [-122.32134200009102, 37.77088099991677], [-122.32155499962802, 37.77121499972896], [-122.3249599999321, 37.776560000015394], [-122.3279169996242, 37.78120200011313], [-122.33136499958597, 37.781387000275984], [-122.33160200031075, 37.781404000206315], [-122.33226299956142, 37.78208199987833], [-122.33234799995024, 37.782370000056126], [-122.3315360001885, 37.786942000052214], [-122.33244300038481, 37.788398000271], [-122.33516999992311, 37.79276800031724], [-122.33607999959415, 37.79422500022725], [-122.3360910003631, 37.79424300024183], [-122.33646700010677, 37.794845999970704], [-122.33658099990959, 37.795028000200396], [-122.33664200000894, 37.79512099980931], [-122.34028099976643, 37.80062800030295], [-122.34102099955813, 37.80183000024131], [-122.34156100023164, 37.802706999695104], [-122.34540099983055, 37.80894700018993], [-122.34668100029575, 37.81102700028631], [-122.34688100031225, 37.811427000220434], [-122.34718099988794, 37.81224699976899], [-122.34854599984361, 37.81596699995773], [-122.34900100012828, 37.81720799988584], [-122.3490239996945, 37.8172699999435], [-122.34904999963378, 37.81733999973995], [-122.34906700025053, 37.817386000117544], [-122.34919399957381, 37.817728000267124], [-122.34938699991767, 37.81824799982395], [-122.3496070000257, 37.81884100007466], [-122.3497550001637, 37.81923999968162], [-122.35037600012973, 37.820910999815], [-122.352634000038, 37.82698799996313], [-122.35450399960875, 37.83202300006856], [-122.3558810001583, 37.83572699983474], [-122.3582600004404, 37.84192600009155], [-122.3653999998631, 37.860525999734705], [-122.36778099979504, 37.866726000251745], [-122.36898000006937, 37.87012500010896], [-122.3692279997665, 37.870825999771384], [-122.37067599956286, 37.87492699999483], [-122.3722289998395, 37.87932599984688], [-122.37258100019203, 37.88032499969737], [-122.37378200011617, 37.88372500002528], [-122.37398200013271, 37.88388400016003], [-122.37458200018236, 37.88436399968816], [-122.37478200019889, 37.88452499993701], [-122.38174000004672, 37.8899549997623], [-122.39938200043682, 37.903725000291345], [-122.4025929996738, 37.90627400000989], [-122.40950700003903, 37.911763000144894], [-122.41214200041415, 37.91385499992949], [-122.42004699974294, 37.920131000202154], [-122.42268299994296, 37.922223999986265], [-122.42460199991753, 37.92374400034405], [-122.42644399989919, 37.9252019998082], [-122.4302049998554, 37.92817899968807], [-122.43036200021425, 37.92830399997321], [-122.43221599989148, 37.92977099983961], [-122.43228299983862, 37.929824000068926], [-122.4301830001141, 37.91842499976442], [-122.42758299989906, 37.904025000144586], [-122.42408300005876, 37.88462599979453], [-122.42268299994296, 37.87812600028425], [-122.42248299992643, 37.87642599970068], [-122.42216200043438, 37.874435999794166], [-122.42083599993843, 37.86624699988893], [-122.42037999982885, 37.86342600024239], [-122.42034200019401, 37.86320300027011], [-122.4201370001546, 37.86315500014327], [-122.42009399959859, 37.86319799969691], [-122.42004199972004, 37.86317900021058], [-122.4200230003518, 37.863192999832535], [-122.41986500016806, 37.86314099980489], [-122.41972700007578, 37.86302699988865], [-122.41948400040152, 37.862903000028396], [-122.41944599986839, 37.862887999665084], [-122.4193270000427, 37.86292200029505], [-122.41894100025333, 37.862564000008945], [-122.41886000006248, 37.86224500027584], [-122.41883099975014, 37.86224500027584], [-122.41873600021391, 37.8619590002461], [-122.41877399984874, 37.86186399975013], [-122.41877899987163, 37.86167299981574], [-122.41939399998986, 37.86104799979349], [-122.41945599991413, 37.860948000234266], [-122.41972200005291, 37.860915000115924], [-122.41990700000085, 37.86057900019731], [-122.41988100006158, 37.860425000166], [-122.41925800044572, 37.856453999896104], [-122.41879399994023, 37.85349599991133], [-122.41878200024466, 37.853425000262476], [-122.41867299956641, 37.8525049996686], [-122.41871000027463, 37.85249100014448], [-122.42247500042882, 37.85111000002694], [-122.4242269999988, 37.85044999968579], [-122.4336250002281, 37.84691199982289], [-122.445483000032, 37.84242700023839], [-122.45398300028586, 37.83902699972501], [-122.46807899990657, 37.83368699976042], [-122.47003700023919, 37.8329450001255], [-122.4722480002918, 37.832106999912085], [-122.47282999989976, 37.83189199991058], [-122.47289699984692, 37.83188599965403], [-122.47330500027593, 37.831852000319685], [-122.47361900009525, 37.831928999707934], [-122.47393999958732, 37.832194999814504], [-122.47417099956598, 37.83265299975667], [-122.47431600022927, 37.833523000110624], [-122.4744889995833, 37.833637000243286], [-122.47613399992147, 37.833637000243286], [-122.47711599956254, 37.83345300005394], [-122.47780799967364, 37.833224000083405], [-122.47801000023831, 37.83304099995545], [-122.47809599955377, 37.832744999842014], [-122.47760600000728, 37.832286000078945], [-122.47744100015086, 37.83221400019087], [-122.47728799998998, 37.83214799975876], [-122.47733700039377, 37.831943000297606], [-122.47740299961772, 37.83166900033608], [-122.47708600032362, 37.83132500011921], [-122.47703000024711, 37.83114900026256], [-122.4772889998149, 37.83105000029175], [-122.47786499957508, 37.83130100032476], [-122.47812499986607, 37.83123299968215], [-122.47832900008058, 37.83102599969833], [-122.47844200005845, 37.8309119997883], [-122.47861399958762, 37.82996299978804], [-122.47869999980134, 37.82949299998393], [-122.4785919998463, 37.82936399974507], [-122.47846999964756, 37.82921799971416], [-122.47844000040867, 37.82882799981887], [-122.47855199966334, 37.82854100027126], [-122.47858099997565, 37.82850299975055], [-122.47855500003638, 37.8273640003225], [-122.47835300037, 37.82651900012824], [-122.47835300037, 37.825762999732596], [-122.47809399990393, 37.825578999774635], [-122.47809200025411, 37.82534899971423], [-122.47843899968542, 37.825280000194965], [-122.47873800033447, 37.82538999976824], [-122.47881500032736, 37.8254179998786], [-122.47893199960491, 37.825418999654275], [-122.4790939999866, 37.825423999951504], [-122.47920799978944, 37.82542699998782], [-122.47943799994322, 37.82543200028456], [-122.47957000018769, 37.82543600009595], [-122.47967999979257, 37.82543999990712], [-122.48075799969307, 37.825876000023094], [-122.48099399969462, 37.82596899981217], [-122.48181600040039, 37.826057999706535], [-122.48251099998625, 37.82568600029577], [-122.48325900017389, 37.82564499969663], [-122.48322999986159, 37.82628600015806], [-122.48346099984026, 37.82649200019683], [-122.4841539997763, 37.82681199969518], [-122.48455899983225, 37.82688099991071], [-122.48483099981881, 37.826664000064184], [-122.48506400034564, 37.8264459998178], [-122.48620300034553, 37.82624199988926], [-122.48725399958354, 37.826460999790285], [-122.48854200044464, 37.826764999758254], [-122.4898980001795, 37.82690199974756], [-122.49122499960204, 37.82660299985186], [-122.49159899969584, 37.82571100026917], [-122.49208300029285, 37.825328000145014], [-122.4921159999048, 37.825078999931854], [-122.49242499970129, 37.82490000002041], [-122.49318600030769, 37.824656999917586], [-122.49356100022642, 37.82394700015179], [-122.4943689997902, 37.823603000123434], [-122.49477300002123, 37.82325899991086], [-122.49500599964975, 37.822793999748264], [-122.49533299988789, 37.822588000030784], [-122.49584000005109, 37.82213700021957], [-122.49618599965748, 37.82206799982604], [-122.4964180003594, 37.82231999971685], [-122.4988119998118, 37.8222270002966], [-122.49962000027386, 37.82188399988038], [-122.49987899984166, 37.82158600005979], [-122.49979400035117, 37.820861000155794], [-122.4996770001753, 37.820601999945445], [-122.49914300024791, 37.82025899978327], [-122.49909600039226, 37.81988300012439], [-122.50070800022013, 37.81985099992912], [-122.50135900032339, 37.8204350000677], [-122.50139199993534, 37.820623000149816], [-122.50176699985408, 37.82089799980749], [-122.50176699985408, 37.82115000014501], [-122.50167899999052, 37.821227999889246], [-122.50165300005125, 37.821494000253125], [-122.50193900028151, 37.82152400007925], [-122.5028670003942, 37.82090199986462], [-122.50312299958894, 37.82092200014705], [-122.50338299987993, 37.821128000256834], [-122.50447500002414, 37.82103299966447], [-122.5048240000036, 37.82131000029574], [-122.50488400027807, 37.821806999944386], [-122.5056330002906, 37.82227400028529], [-122.50556499962022, 37.8228360003228], [-122.50586000007132, 37.82306499989245], [-122.51128800010703, 37.824702999992596], [-122.5117790003767, 37.824702999992596], [-122.51218699990739, 37.82456699996552], [-122.51244200017551, 37.824520000017884], [-122.5129400001179, 37.82474999982368], [-122.51507199962944, 37.825243999679735], [-122.51592600012229, 37.82530000000056], [-122.51671100011983, 37.82477400032976], [-122.51687599997628, 37.8246720002537], [-122.51717599955194, 37.824820000331854], [-122.51720599968918, 37.8249810001134], [-122.51767799969227, 37.82519899972059], [-122.51848899962908, 37.82529000009845], [-122.51916700039484, 37.82504999991227], [-122.519783000338, 37.82512199969529], [-122.52069700020695, 37.825278999707834], [-122.52285999968069, 37.82492900009895], [-122.52356900040856, 37.82466099977098], [-122.52382700015143, 37.82455300010504], [-122.5238239997784, 37.82403599964637], [-122.52437399959928, 37.823653999853484], [-122.5246139997988, 37.82335600008362], [-122.52451400023968, 37.8229719999918], [-122.5241779997807, 37.82280099984565], [-122.52415699986429, 37.822645000051466], [-122.52439500041399, 37.82249200008312], [-122.52486800024202, 37.82241599988819], [-122.52532699982632, 37.822512999749755], [-122.52558799994223, 37.82188799988411], [-122.52553100004084, 37.82111900033295], [-122.52581399989805, 37.821052999911416], [-122.526182999969, 37.82114399972457], [-122.52624999991613, 37.820978000199354], [-122.52666199964479, 37.820882000286424], [-122.52715700011242, 37.82095899976818], [-122.52776499965965, 37.820782000185176], [-122.52830000031025, 37.8205380001644], [-122.528851999781, 37.82010800024099], [-122.52907100006409, 37.81965200019947], [-122.52930600024077, 37.81916100010497], [-122.5293589999442, 37.81900899987326], [-122.52931399973835, 37.81867700007141], [-122.5289720003299, 37.81845400030029], [-122.52894600039063, 37.81818300025711], [-122.52858599964222, 37.81764000014351], [-122.52857599959646, 37.81727500008322], [-122.52889199996397, 37.816923000347316], [-122.52849299975578, 37.81644200023423], [-122.52840599971715, 37.81612600008729], [-122.52782499993411, 37.8157039999781], [-122.52774799994121, 37.81548199965189], [-122.5277389997204, 37.81513999974177], [-122.52802499995065, 37.81510200012708], [-122.52855300003024, 37.81537400003821], [-122.52884099991034, 37.81547199983888], [-122.52893299997184, 37.81549300008334], [-122.52920800033145, 37.81527099983234], [-122.52970799992367, 37.81514699985541], [-122.5299089997651, 37.815399999867665], [-122.53009999956083, 37.815430000041594], [-122.53408800019606, 37.81534700028752], [-122.53623200030151, 37.81530299988413], [-122.54638600021606, 37.815228000007], [-122.55088600013907, 37.81532799982623], [-122.58458800033027, 37.815228000007], [-122.61228500000237, 37.815224000352075]]], [[[-123.17382500036122, 37.775727000337284], [-123.17376300043692, 37.771831000025934], [-123.17292599966252, 37.76360000004897], [-123.16998499986396, 37.7559300000438], [-123.16669900028388, 37.749929999999324], [-123.16275099983162, 37.7435330003298], [-123.15675700008147, 37.73783999974064], [-123.149127000214, 37.73227900016088], [-123.14149499979838, 37.72616000015968], [-123.13259700005963, 37.71939299995976], [-123.12611399968961, 37.71672999977094], [-123.11964499956335, 37.7154410000919], [-123.11557499981062, 37.714045000006266], [-123.1049210003039, 37.712648000032104], [-123.099647000254, 37.713590999738045], [-123.09480099982625, 37.71406699979518], [-123.09285000006466, 37.7136880003217], [-123.0917999997532, 37.711872000102865], [-123.08878399961156, 37.70579199968008], [-123.08605700007324, 37.700749999919466], [-123.08188000019041, 37.69683999982736], [-123.07715500013651, 37.69232400027789], [-123.07492099961937, 37.690065999723906], [-123.07306299974415, 37.68258299986083], [-123.06858899976044, 37.67304100021428], [-123.06357800037455, 37.66731599996543], [-123.05358000009564, 37.6586479998139], [-123.04069600026975, 37.650328000140405], [-123.02715299994468, 37.64522100034966], [-123.01160500032962, 37.64150600009009], [-123.00110999993325, 37.64177499991514], [-123.00110999993325, 37.63982999982411], [-123.00091199956655, 37.63992999988372], [-122.99258899976303, 37.64101599973028], [-122.98674700034886, 37.64178300019913], [-122.9805130003992, 37.64389999998776], [-122.97301200040314, 37.64658100018689], [-122.96300599972831, 37.651983999936796], [-122.95487600026867, 37.65834800015908], [-122.94906800029135, 37.66337699985442], [-122.9450090004093, 37.66977300026098], [-122.94136399990573, 37.6765800002025], [-122.93966099984122, 37.68235299989675], [-122.93902599963151, 37.686544000109194], [-122.93733900035886, 37.69093000013785], [-122.93570999991422, 37.69761800023185], [-122.93586499972491, 37.702459000072835], [-122.9376790001175, 37.70924100012938], [-122.93791699976887, 37.70995600003684], [-122.93971100006993, 37.715350000155176], [-122.94229399966825, 37.72105699996244], [-122.94552300024523, 37.72531400014139], [-122.94998499963508, 37.73218699997862], [-122.9546400002671, 37.73682699970322], [-122.95839100017758, 37.739733999691225], [-122.96105699961655, 37.74195500003245], [-122.96409899969744, 37.744280999993244], [-122.96727100037299, 37.74630299972566], [-122.97044899999804, 37.74781800021254], [-122.97325599990232, 37.74865199969819], [-122.97406099999135, 37.74992899991213], [-122.97544799968836, 37.75258499990566], [-122.97759599999175, 37.754976000147586], [-122.98142899991802, 37.75891599990029], [-122.98741400034562, 37.76387000019487], [-122.99509000024383, 37.76913099986924], [-122.99753800012292, 37.770783999695055], [-123.00110999993325, 37.772053000189075], [-123.00615399982941, 37.77352399982032], [-123.01058799963018, 37.77492600029836], [-123.01696999971783, 37.77606900027108], [-123.02584999991326, 37.777089999790206], [-123.0314360001327, 37.77715299987517], [-123.03384100035409, 37.77837500018893], [-123.03509699963149, 37.78043099994809], [-123.03872600024157, 37.78888099972719], [-123.04881700040688, 37.799815999765464], [-123.0704940003896, 37.81383000024505], [-123.0816459998387, 37.81815100003443], [-123.0952610001338, 37.82187699969602], [-123.10825600028778, 37.82254200005665], [-123.11828899982848, 37.823057999820115], [-123.12611399968961, 37.821664000052884], [-123.13227200036958, 37.81967600023454], [-123.13944100010463, 37.8167190003531], [-123.14720900006435, 37.811950999992185], [-123.15333500005896, 37.80744400021762], [-123.15386300013857, 37.80706499980169], [-123.16093599961411, 37.8020020000818], [-123.16601200019565, 37.796885000171144], [-123.16910699998, 37.792365000163024], [-123.17371499985805, 37.77611299990687], [-123.17382500036122, 37.775727000337284]]]]}, "properties": {"GEOID": "0611", "NAME": "Congressional District 11", "STATE": "06", "CD119": "11"}}]}